ONEWEB-0228             
1 48780U 21045P   24037.65149686 -.00000073  00000+0 -22740-3 0  9999
2 48780  87.8945  70.6662 0002041  95.2334 264.9029 13.15547154132183
